ONEWEB-0456             
1 51646U 22012AA  25104.74868597 -.00000182  00000+0 -55711-3 0  9999
2 51646  87.8787 121.6460 0001846  88.0919 272.0419 13.10369590153239
ONEWEB-0457             
1 51647U 22012AB  25104.95453959  .00000601  00000+0  16850-2 0  9999
2 51647  87.8800 121.6540 0002270 101.2689 258.8693 13.10372440153266
ONEWEB-0458             
1 51648U 22012AC  25104.74702862 -.00000108  00000+0 -34698-3 0  9992
2 51648  87.8780 121.6863 0002115  90.1988 269.9381 13.10368635153198
ONEWEB-0461             
1 51649U 22012AD  25104.94908741  .00000064  00000+0  13208-3 0  9992
2 51649  87.9009  91.1342 0002010  89.5390 270.5972 13.17647403157491
ONEWEB-0463             
1 51650U 22012AE  25104.93052602 -.00000013  00000+0 -67557-4 0  9992
2 51650  87.9012  91.1979 0002049  88.1509 271.9857 13.17646457157273
ONEWEB-0464             
1 51651U 22012AF  25104.97278289  .00000156  00000+0  40957-3 0  9998
2 51651  87.8795 121.6585 0001843  83.7477 276.3860 13.10368833153247
ONEWEB-0468             
1 51652U 22012AG  25104.75034500 -.00000258  00000+0 -77518-3 0  9999
2 51652  87.8797 121.6948 0002015  91.1317 269.0041 13.10369497153192
ONEWEB-0473             
1 51653U 22012AH  25104.27727365  .00000422  00000+0  11738-2 0  9997
2 51653  87.8797 121.7923 0002103  89.8656 270.2712 13.10370490153133
ONEWEB-0474             
1 51654U 22012AJ  25104.95619829  .00000629  00000+0  17660-2 0  9997
2 51654  87.8790 121.6261 0002057  85.0080 275.1282 13.10371947153211
ONEWEB-0475             
1 51655U 22012AK  25104.94235296  .00000022  00000+0  22157-4 0  9995
2 51655  87.9013  91.1754 0002529  72.3066 287.8341 13.17647613157297
ONEWEB-0490             
1 54113U 22138A   25104.76970587  .00000072  00000+0  14800-3 0  9995
2 54113  87.9252  30.1064 0001884  74.1417 285.9924 13.19725756120321
ONEWEB-0492             
1 54114U 22138B   25104.71915433  .00000039  00000+0  65408-4 0  9994
2 54114  87.9259  30.1355 0001694  74.9023 285.2297 13.19726198120329
ONEWEB-0495             
1 54115U 22138C   25104.84866110 -.00000035  00000+0 -12050-3 0  9998
2 54115  87.9258  30.1215 0001979  57.2981 302.8342 13.19728010120329
ONEWEB-0497             
1 54116U 22138D   25104.86130390  .00000034  00000+0  53572-4 0  9997
2 54116  87.9255  30.0940 0001879  75.9027 284.2315 13.19723556120310
ONEWEB-0499             
1 54117U 22138E   25104.84394678  .00000037  00000+0  60658-4 0  9993
2 54117  87.9258  30.1121 0002282  75.0097 285.1289 13.19726638120328
ONEWEB-0500             
1 54118U 22138F   25104.84710154  .00000046  00000+0  83258-4 0  9996
2 54118  87.9254  30.0983 0001853  79.0821 281.0520 13.19725586120337
ONEWEB-0501             
1 54119U 22138G   25104.49803180  .00000131  00000+0  29540-3 0  9998
2 54119  87.9256  30.1618 0001973  65.7104 294.4235 13.19725106121133
ONEWEB-0502             
1 54120U 22138H   25104.71126168  .00000077  00000+0  15894-3 0  9995
2 54120  87.9255  30.1044 0002076  70.6336 289.5021 13.19726767120315
ONEWEB-0503             
1 54121U 22138J   25104.85184068  .00000024  00000+0  27197-4 0  9996
2 54121  87.9251  30.0820 0002275  81.0471 279.0919 13.19726074120322
ONEWEB-0504             
1 54122U 22138K   25104.83919601  .00000005  00000+0 -20050-4 0  9995
2 54122  87.9253  30.0976 0002152  71.8124 288.3243 13.19723367120339
ONEWEB-0505             
1 54123U 22138L   25104.76022642  .00000016  00000+0  74164-5 0  9995
2 54123  87.9253  30.1038 0002151  63.1662 296.9690 13.19724239120307
ONEWEB-0506             
1 54124U 22138M   25104.73495149  .00000093  00000+0  19974-3 0  9990
2 54124  87.9252  30.1057 0001986  73.4382 286.6969 13.19723616120297
ONEWEB-0507             
1 54125U 22138N   25104.83130008  .00000041  00000+0  70865-4 0  9992
2 54125  87.9261  30.1334 0001879  71.8386 288.2951 13.19725879120352
ONEWEB-0508             
1 54126U 22138P   25104.82814500  .00000078  00000+0  16312-3 0  9994
2 54126  87.9256  30.1188 0001832  66.0516 294.0808 13.19724233120331
ONEWEB-0509             
1 54127U 22138Q   25104.72705765  .00000137  00000+0  30948-3 0  9993
2 54127  87.9254  30.1055 0001941  74.1084 286.0263 13.19725607120291
ONEWEB-0510             
1 54128U 22138R   25104.72683565  .00000037  00000+0  58194-4 0  9990
2 54128  87.9325 359.7349 0001671  85.7880 274.3444 13.20771760122723
ONEWEB-0511             
1 54129U 22138S   25104.72389748  .00000046  00000+0  82646-4 0  9996
2 54129  87.9254  30.1115 0002235  79.2672 280.8712 13.19725823120321
ONEWEB-0512             
1 54130U 22138T   25104.86762492  .00000013  00000+0  38882-6 0  9993
2 54130  87.9260  30.1226 0002114  67.5850 292.5506 13.19727753120311
ONEWEB-0513             
1 54131U 22138U   25104.74916852  .00000078  00000+0  16230-3 0  9993
2 54131  87.9257  30.1268 0002223  70.1627 289.9745 13.20257286120188
ONEWEB-0514             
1 54132U 22138V   25104.80761458  .00000004  00000+0 -23369-4 0  9993
2 54132  87.9254  30.1055 0001939  79.4314 280.7037 13.19725724120322
ONEWEB-0515             
1 54133U 22138W   25104.94148851  .00000043  00000+0  73164-4 0  9995
2 54133  87.9324 359.6691 0001262 109.6488 250.4782 13.20771246122777
ONEWEB-0516             
1 54134U 22138X   25104.55488889  .00000023  00000+0  25435-4 0  9997
2 54134  87.9260  30.1873 0001827  74.9675 285.1660 13.19726382120293
ONEWEB-0517             
1 54135U 22138Y   25104.83762671 -.00000050  00000+0 -15622-3 0  9991
2 54135  87.9254  30.0952 0002259  81.4535 278.6853 13.19724691120339
ONEWEB-0518             
1 54136U 22138Z   25104.85654670  .00000105  00000+0  22949-3 0  9992
2 54136  87.9259  30.1235 0001940  73.7066 286.4280 13.19723528120338
ONEWEB-0519             
1 54137U 22138AA  25104.80603466 -.00000017  00000+0 -74349-4 0  9991
2 54137  87.9253  30.0944 0002208  79.2909 280.8472 13.19725650120333
ONEWEB-0520             
1 54138U 22138AB  25104.84076637 -.00000017  00000+0 -74420-4 0  9990
2 54138  87.9253  30.0913 0001884  67.5645 292.5687 13.19727790120320
ONEWEB-0521             
1 54139U 22138AC  25104.72231758  .00000062  00000+0  12244-3 0  9998
2 54139  87.9251  30.1032 0002111  84.4420 275.6953 13.19727017120257
ONEWEB-0522             
1 54140U 22138AD  25104.70179532  .00000024  00000+0  27341-4 0  9992
2 54140  87.9250  30.1086 0001844  76.1035 284.0303 13.19725927120294
ONEWEB-0523             
1 54141U 22138AE  25104.70158660  .00000043  00000+0  73404-4 0  9994
2 54141  87.9325 359.7469 0001902 107.6452 252.4889 13.20771432122745
ONEWEB-0524             
1 54142U 22138AF  25104.76629497  .00000031  00000+0  45580-4 0  9993
2 54142  87.9324 359.7359 0000958  98.1029 262.0213 13.20771558122755
ONEWEB-0525             
1 54143U 22138AG  25104.72071352  .00000103  00000+0  22462-3 0  9994
2 54143  87.9256  30.1220 0002005  69.0689 291.0658 13.19731570120314
ONEWEB-0526             
1 54144U 22138AH  25104.82971235  .00000025  00000+0  29553-4 0  9997
2 54144  87.9251  30.0900 0001871  75.9103 284.2238 13.19723038120308
ONEWEB-0529             
1 54145U 22138AJ  25104.83287988  .00000017  00000+0  11328-4 0  9996
2 54145  87.9260  30.1266 0001886  70.9149 289.2188 13.19725795120329
ONEWEB-0531             
1 54146U 22138AK  25104.75208721  .00000076  00000+0  15422-3 0  9999
2 54146  87.9323 359.7323 0001639 110.5638 249.5672 13.20772028122753
ONEWEB-0535             
1 54147U 22138AL  25104.86605616  .00000004  00000+0 -21209-4 0  9999
2 54147  87.9253  30.0794 0001863  87.0180 273.1166 13.19725872120343
ONEWEB-0536             
1 54148U 22138AM  25104.73946761  .00000112  00000+0  24376-3 0  9991
2 54148  87.9324 359.7811 0001450 116.3716 243.7566 13.20770797122748
ONEWEB-0527             
1 54642U 22166A   25104.88112000  .00000089  00000+0  18351-3 0  9997
2 54642  87.9282 329.4109 0001653  84.7999 275.3323 13.21825947114955
ONEWEB-0528             
1 54643U 22166B   25104.88744078  .00000130  00000+0  28324-3 0  9992
2 54643  87.9288 329.4068 0001740  79.8606 280.2724 13.21826775114964
ONEWEB-0539             
1 54644U 22166C   25104.84800108  .00000010  00000+0 -81073-5 0  9996
2 54644  87.9267 329.4071 0001927  81.7420 278.3932 13.21826878114951
ONEWEB-0540             
1 54645U 22166D   25104.62735136  .00000027  00000+0  32884-4 0  9993
2 54645  87.9282 329.4708 0001982  82.0594 278.0765 13.21829514114910
ONEWEB-0542             
1 54646U 22166E   25104.63037949  .00000046  00000+0  79199-4 0  9993
2 54646  87.9267 329.4483 0002163  86.0946 274.0435 13.21824700114924
ONEWEB-0545             
1 54647U 22166F   25104.90003939  .00000036  00000+0  55839-4 0  9990
2 54647  87.9279 329.3998 0002358  80.6896 279.4505 13.21823456114922
ONEWEB-0580             
1 54648U 22166G   25104.87323446  .00000087  00000+0  17833-3 0  9992
2 54648  87.9285 329.3961 0002172  87.3543 272.7839 13.21826034114962
ONEWEB-0582             
1 54649U 22166H   25104.68874227  .00000254  00000+0  58409-3 0  9990
2 54649  87.9266 329.4499 0002382  89.5000 270.6407 13.21824621114917
ONEWEB-0583             
1 54650U 22166J   25104.85115245  .00000041  00000+0  66573-4 0  9995
2 54650  87.9282 329.4241 0001923  82.3192 277.8160 13.21826690114941
ONEWEB-0584             
1 54651U 22166K   25104.64457161  .00000102  00000+0  21656-3 0  9999
2 54651  87.9286 329.4459 0002178  90.9489 269.1895 13.21824983114902
ONEWEB-0585             
1 54652U 22166L   25104.89689182  .00000022  00000+0  21287-4 0  9999
2 54652  87.9274 329.3902 0001686  84.6683 275.4643 13.21825097114943
ONEWEB-0586             
1 54653U 22166M   25104.90950012  .00000010  00000+0 -77506-5 0  9999
2 54653  87.9283 329.4049 0001996  84.1488 275.9873 13.21827520114942
ONEWEB-0587             
1 54654U 22166N   25104.61617423 -.00000062  00000+0 -18169-3 0  9990
2 54654  87.9282 329.4134 0001585  81.5715 278.5599 13.21826947115065
